[{"OBJECT_NAME":"STARLINK-2209","OBJECT_ID":"2021-017BG","EPOCH":"2026-03-10T00:00:02.999808","MEAN_MOTION":15.44197339,"ECCENTRICITY":0.00010832,"INCLINATION":53.1594,"RA_OF_ASC_NODE":201.998,"ARG_OF_PERICENTER":72.9426,"MEAN_ANOMALY":205.8018,"EPHEMERIS_TYPE":0,"CLASSIFICATION_TYPE":"U","NORAD_CAT_ID":47776,"ELEMENT_SET_NO":999,"REV_AT_EPOCH":581,"BSTAR":9.0478385e-5,"MEAN_MOTION_DOT":3.798e-5,"MEAN_MOTION_DDOT":0},{"OBJECT_NAME":"STARLINK-32477","OBJECT_ID":"2024-216G","EPOCH":"2026-03-09T22:00:01.999584","MEAN_MOTION":15.40035312,"ECCENTRICITY":0.00143368,"INCLINATION":42.9968,"RA_OF_ASC_NODE":249.1133,"ARG_OF_PERICENTER":299.5246,"MEAN_ANOMALY":249.0456,"EPHEMERIS_TYPE":0,"CLASSIFICATION_TYPE":"U","NORAD_CAT_ID":62038,"ELEMENT_SET_NO":999,"REV_AT_EPOCH":571,"BSTAR":0.0053221148,"MEAN_MOTION_DOT":0.00224343,"MEAN_MOTION_DDOT":0}]
